{"type": "FeatureCollection", "features": [{"type": "Feature", "properties": {"norad_id": 25590, "name": "COSMOS 2361", "group": "musson", "lat": -32.092024301332714, "lon": -17.35282592914813, "alt_km": 979.857568139334, "timestamp": "2025-12-08T15:42:50.060660+00:00", "meta": {"OBJECT_NAME": "COSMOS 2361", "OBJECT_ID": "1998-076A", "EPOCH": "2025-12-08T07:10:44.166720", "MEAN_MOTION": 13.73216775, "ECCENTRICITY": 0.00300721, "INCLINATION": 82.9339, "RA_OF_ASC_NODE": 347.3711, "ARG_OF_PERICENTER": 278.5091, "MEAN_ANOMALY": 91.8958, "EPHEMERIS_TYPE": 0, "CLASSIFICATION_TYPE": "U", "NORAD_CAT_ID": 25590, "ELEMENT_SET_NO": 999, "REV_AT_EPOCH": 35050, "BSTAR": 8.7736646e-05, "MEAN_MOTION_DOT": 9.6e-07, "MEAN_MOTION_DDOT": 0}, "tle": {"line1": "1 25590U 98076A   25342.29912230  .00000096  00000+0  87737-4 0  9995", "line2": "2 25590  82.9339 347.3711 0030072 278.5091  91.8958 13.73216775350502"}}, "geometry": {"type": "Point", "coordinates": [-17.35282592914813, -32.092024301332714]}}, {"type": "Feature", "properties": {"norad_id": 26818, "name": "COSMOS 2378", "group": "musson", "lat": 26.267243851136904, "lon": 6.266904695953317, "alt_km": 1007.0633193922304, "timestamp": "2025-12-08T15:42:50.060681+00:00", "meta": {"OBJECT_NAME": "COSMOS 2378", "OBJECT_ID": "2001-023A", "EPOCH": "2025-12-08T03:39:36.671328", "MEAN_MOTION": 13.741414, "ECCENTRICITY": 0.00321516, "INCLINATION": 82.9274, "RA_OF_ASC_NODE": 3.1265, "ARG_OF_PERICENTER": 217.8988, "MEAN_ANOMALY": 205.4922, "EPHEMERIS_TYPE": 0, "CLASSIFICATION_TYPE": "U", "NORAD_CAT_ID": 26818, "ELEMENT_SET_NO": 999, "REV_AT_EPOCH": 22860, "BSTAR": 5.3869753e-05, "MEAN_MOTION_DOT": 6.6e-07, "MEAN_MOTION_DDOT": 0}, "tle": {"line1": "1 26818U 01023A   25342.15250777  .00000066  00000+0  53870-4 0  9999", "line2": "2 26818  82.9274   3.1265 0032151 217.8988 205.4922 13.74141400228608"}}, "geometry": {"type": "Point", "coordinates": [6.266904695953317, 26.267243851136904]}}, {"type": "Feature", "properties": {"norad_id": 27436, "name": "COSMOS 2389", "group": "musson", "lat": -38.617081302511764, "lon": 135.68186955841279, "alt_km": 1016.9572116894506, "timestamp": "2025-12-08T15:42:50.060694+00:00", "meta": {"OBJECT_NAME": "COSMOS 2389", "OBJECT_ID": "2002-026A", "EPOCH": "2025-12-08T08:12:12.212928", "MEAN_MOTION": 13.75153971, "ECCENTRICITY": 0.00477163, "INCLINATION": 82.9499, "RA_OF_ASC_NODE": 310.2407, "ARG_OF_PERICENTER": 72.6887, "MEAN_ANOMALY": 37.5413, "EPHEMERIS_TYPE": 0, "CLASSIFICATION_TYPE": "U", "NORAD_CAT_ID": 27436, "ELEMENT_SET_NO": 999, "REV_AT_EPOCH": 18088, "BSTAR": 9.3732817e-05, "MEAN_MOTION_DOT": 1.06e-06, "MEAN_MOTION_DDOT": 0}, "tle": {"line1": "1 27436U 02026A   25342.34180802  .00000106  00000+0  93733-4 0  9999", "line2": "2 27436  82.9499 310.2407 0047716  72.6887  37.5413 13.75153971180885"}}, "geometry": {"type": "Point", "coordinates": [135.68186955841279, -38.617081302511764]}}, {"type": "Feature", "properties": {"norad_id": 27818, "name": "COSMOS 2398", "group": "musson", "lat": -32.10731816902477, "lon": 100.16313880193539, "alt_km": 996.7968424726814, "timestamp": "2025-12-08T15:42:50.060706+00:00", "meta": {"OBJECT_NAME": "COSMOS 2398", "OBJECT_ID": "2003-023A", "EPOCH": "2025-12-08T06:27:54.457920", "MEAN_MOTION": 13.72385011, "ECCENTRICITY": 0.0032419, "INCLINATION": 82.9481, "RA_OF_ASC_NODE": 275.9925, "ARG_OF_PERICENTER": 123.7736, "MEAN_ANOMALY": 345.272, "EPHEMERIS_TYPE": 0, "CLASSIFICATION_TYPE": "U", "NORAD_CAT_ID": 27818, "ELEMENT_SET_NO": 999, "REV_AT_EPOCH": 12755, "BSTAR": 9.5271347e-05, "MEAN_MOTION_DOT": 1.03e-06, "MEAN_MOTION_DDOT": 0}, "tle": {"line1": "1 27818U 03023A   25342.26938030  .00000103  00000+0  95271-4 0  9992", "line2": "2 27818  82.9481 275.9925 0032419 123.7736 345.2720 13.72385011127551"}}, "geometry": {"type": "Point", "coordinates": [100.16313880193539, -32.10731816902477]}}, {"type": "Feature", "properties": {"norad_id": 28380, "name": "COSMOS 2407", "group": "musson", "lat": -10.53176830071994, "lon": -145.39912082521016, "alt_km": 974.0373893475407, "timestamp": "2025-12-08T15:42:50.060717+00:00", "meta": {"OBJECT_NAME": "COSMOS 2407", "OBJECT_ID": "2004-028A", "EPOCH": "2025-12-08T04:06:19.908000", "MEAN_MOTION": 13.76312942, "ECCENTRICITY": 0.00404495, "INCLINATION": 82.9613, "RA_OF_ASC_NODE": 216.2751, "ARG_OF_PERICENTER": 67.2262, "MEAN_ANOMALY": 47.5663, "EPHEMERIS_TYPE": 0, "CLASSIFICATION_TYPE": "U", "NORAD_CAT_ID": 28380, "ELEMENT_SET_NO": 999, "REV_AT_EPOCH": 7360, "BSTAR": 9.361977e-05, "MEAN_MOTION_DOT": 1.07e-06, "MEAN_MOTION_DDOT": 0}, "tle": {"line1": "1 28380U 04028A   25342.17106375  .00000107  00000+0  93620-4 0  9992", "line2": "2 28380  82.9613 216.2751 0040449  67.2262  47.5663 13.76312942 73607"}}, "geometry": {"type": "Point", "coordinates": [-145.39912082521016, -10.53176830071994]}}, {"type": "Feature", "properties": {"norad_id": 28521, "name": "COSMOS 2414", "group": "musson", "lat": 79.89726811739007, "lon": -128.25903958864615, "alt_km": 917.5747571681513, "timestamp": "2025-12-08T15:42:50.060728+00:00", "meta": {"OBJECT_NAME": "COSMOS 2414", "OBJECT_ID": "2005-002A", "EPOCH": "2025-12-08T06:39:52.496352", "MEAN_MOTION": 13.87902164, "ECCENTRICITY": 0.00406371, "INCLINATION": 82.9496, "RA_OF_ASC_NODE": 188.034, "ARG_OF_PERICENTER": 152.2218, "MEAN_ANOMALY": 208.1128, "EPHEMERIS_TYPE": 0, "CLASSIFICATION_TYPE": "U", "NORAD_CAT_ID": 28521, "ELEMENT_SET_NO": 999, "REV_AT_EPOCH": 5733, "BSTAR": 8.6950372e-05, "MEAN_MOTION_DOT": 1.2e-06, "MEAN_MOTION_DDOT": 0}, "tle": {"line1": "1 28521U 05002A   25342.27769093  .00000120  00000+0  86950-4 0  9998", "line2": "2 28521  82.9496 188.0340 0040637 152.2218 208.1128 13.87902164 57334"}}, "geometry": {"type": "Point", "coordinates": [-128.25903958864615, 79.89726811739007]}}, {"type": "Feature", "properties": {"norad_id": 32052, "name": "COSMOS 2429", "group": "musson", "lat": 43.98161754137052, "lon": -6.850443067345717, "alt_km": 948.4603821748369, "timestamp": "2025-12-08T15:42:50.060739+00:00", "meta": {"OBJECT_NAME": "COSMOS 2429", "OBJECT_ID": "2007-038A", "EPOCH": "2025-12-08T06:46:08.273280", "MEAN_MOTION": 13.7514869, "ECCENTRICITY": 0.00394487, "INCLINATION": 82.9803, "RA_OF_ASC_NODE": 346.5953, "ARG_OF_PERICENTER": 49.9892, "MEAN_ANOMALY": 310.4715, "EPHEMERIS_TYPE": 0, "CLASSIFICATION_TYPE": "U", "NORAD_CAT_ID": 32052, "ELEMENT_SET_NO": 999, "REV_AT_EPOCH": 91541, "BSTAR": 6.5559722e-05, "MEAN_MOTION_DOT": 7.9e-07, "MEAN_MOTION_DDOT": 0}, "tle": {"line1": "1 32052U 07038A   25342.28204020  .00000079  00000+0  65560-4 0  9995", "line2": "2 32052  82.9803 346.5953 0039448  49.9892 310.4715 13.75148690915413"}}, "geometry": {"type": "Point", "coordinates": [-6.850443067345717, 43.98161754137052]}}, {"type": "Feature", "properties": {"norad_id": 35635, "name": "COSMOS 2454", "group": "musson", "lat": 74.57834818661878, "lon": -34.889161184961, "alt_km": 907.6481012341528, "timestamp": "2025-12-08T15:42:50.060749+00:00", "meta": {"OBJECT_NAME": "COSMOS 2454", "OBJECT_ID": "2009-039A", "EPOCH": "2025-12-08T07:24:34.074144", "MEAN_MOTION": 13.89927813, "ECCENTRICITY": 0.00204873, "INCLINATION": 82.9556, "RA_OF_ASC_NODE": 172.0039, "ARG_OF_PERICENTER": 85.5731, "MEAN_ANOMALY": 87.6807, "EPHEMERIS_TYPE": 0, "CLASSIFICATION_TYPE": "U", "NORAD_CAT_ID": 35635, "ELEMENT_SET_NO": 999, "REV_AT_EPOCH": 83088, "BSTAR": 7.1914706e-05, "MEAN_MOTION_DOT": 1.05e-06, "MEAN_MOTION_DDOT": 0}, "tle": {"line1": "1 35635U 09039A   25342.30872771  .00000105  00000+0  71915-4 0  9996", "line2": "2 35635  82.9556 172.0039 0020487  85.5731  87.6807 13.89927813830885"}}, "geometry": {"type": "Point", "coordinates": [-34.889161184961, 74.57834818661878]}}, {"type": "Feature", "properties": {"norad_id": 36519, "name": "COSMOS 2463", "group": "musson", "lat": 52.08995397780746, "lon": 38.842320683159905, "alt_km": 998.7171267155518, "timestamp": "2025-12-08T15:42:50.060760+00:00", "meta": {"OBJECT_NAME": "COSMOS 2463", "OBJECT_ID": "2010-017A", "EPOCH": "2025-12-08T05:15:20.399904", "MEAN_MOTION": 13.7164866, "ECCENTRICITY": 0.00349017, "INCLINATION": 82.9616, "RA_OF_ASC_NODE": 30.0346, "ARG_OF_PERICENTER": 301.0604, "MEAN_ANOMALY": 120.7428, "EPHEMERIS_TYPE": 0, "CLASSIFICATION_TYPE": "U", "NORAD_CAT_ID": 36519, "ELEMENT_SET_NO": 999, "REV_AT_EPOCH": 78175, "BSTAR": 8.9960527e-05, "MEAN_MOTION_DOT": 9.6e-07, "MEAN_MOTION_DDOT": 0}, "tle": {"line1": "1 36519U 10017A   25342.21898611  .00000096  00000+0  89961-4 0  9996", "line2": "2 36519  82.9616  30.0346 0034901 301.0604 120.7428 13.71648660781759"}}, "geometry": {"type": "Point", "coordinates": [38.842320683159905, 52.08995397780746]}}]}